STARLINK-2645           
1 48444U 21040S   26068.51397280  .00006792  00000+0  24116-3 0  9998
2 48444  53.1606 178.9451 0001080  69.1744 290.9373 15.30211266266657
ION SCV-008             
1 55051U 23001AU  26068.82429008  .00008336  00000+0  31423-3 0  9992
2 55051  97.5676 163.6060 0015192   8.5420 351.6074 15.27226640176169
